[{"OBJECT_NAME":"HST","OBJECT_ID":"1990-037B","EPOCH":"2026-03-09T03:50:04.164288","MEAN_MOTION":15.29473555,"ECCENTRICITY":0.00018372,"INCLINATION":28.4717,"RA_OF_ASC_NODE":43.6133,"ARG_OF_PERICENTER":120.9992,"MEAN_ANOMALY":239.0785,"EPHEMERIS_TYPE":0,"CLASSIFICATION_TYPE":"U","NORAD_CAT_ID":20580,"ELEMENT_SET_NO":999,"REV_AT_EPOCH":77323,"BSTAR":0.0003002261,"MEAN_MOTION_DOT":9.063e-5,"MEAN_MOTION_DDOT":0},{"OBJECT_NAME":"STARLINK-35260","OBJECT_ID":"2025-216T","EPOCH":"2026-03-09T22:20:01.406976","MEAN_MOTION":15.30258769,"ECCENTRICITY":0.00012728,"INCLINATION":53.1612,"RA_OF_ASC_NODE":331.5433,"ARG_OF_PERICENTER":86.9879,"MEAN_ANOMALY":273.1267,"EPHEMERIS_TYPE":0,"CLASSIFICATION_TYPE":"U","NORAD_CAT_ID":65751,"ELEMENT_SET_NO":999,"REV_AT_EPOCH":2658,"BSTAR":0.0011017405,"MEAN_MOTION_DOT":0.00032473,"MEAN_MOTION_DDOT":0}]
